DMSP 5D-3 F16 (USA 172) 
1 28054U 03048A   26204.88460043 -.00000005  00000+0  20865-4 0  9991
2 28054  98.9887 228.9543 0007880  49.7580  50.9208 14.14485028174675
METEOSAT-9 (MSG-2)      
1 28912U 05049B   26203.95837882  .00000120  00000+0  00000+0 0  9994
2 28912   9.4401  53.8093 0002491   0.9883 276.6377  1.00276551  7354
DMSP 5D-3 F17 (USA 191) 
1 29522U 06050A   26204.86879593  .00000036  00000+0  40803-4 0  9997
2 29522  98.7392 210.6903 0009260 316.6337  43.4107 14.14996843 17610
FENGYUN 3A              
1 32958U 08026A   26204.55770245  .00000047  00000+0  43044-4 0  9991
2 32958  98.6886 144.7119 0009313  29.8116 330.3589 14.19577818940560
EWS-G3 (GOES 14)        
1 35491U 09033A   26204.84982512 -.00000355  00000+0  00000+0 0  9992
2 35491   1.7814  82.5872 0002260  39.8904 244.6383  1.00094314  6952
DMSP 5D-3 F18 (USA 210) 
1 35951U 09057A   26204.84243904  .00000230  00000+0  14220-3 0  9998
2 35951  98.9064 185.5368 0011694 141.9003 218.2999 14.14915848864773
EWS-G2 (GOES 15)        
1 36411U 10008A   26204.83873171  .00000026  00000+0  00000+0 0  9992
2 36411   1.3760  82.3633 0005659  52.7733 171.6158  1.00272421 60005
COMS 1                  
1 36744U 10032A   26204.52695139 -.00000133  00000+0  00000+0 0  9990
2 36744   4.8958  74.9166 0011539  15.4491 329.5146  0.99165960 51445
FENGYUN 3B              
1 37214U 10059A   26204.87455275 -.00000266  00000+0 -11438-3 0  9994
2 37214  98.9605 251.0404 0023244  83.3055  25.3130 14.14846689812614
SUOMI NPP               
1 37849U 11061A   26204.85224000  .00000042  00000+0  41008-4 0  9997
2 37849  98.7956 145.4793 0001203 179.0162 181.1016 14.19523954763649
METEOSAT-10 (MSG-3)     
1 38552U 12035B   26204.82620419 -.00000006  00000+0  00000+0 0  9995
2 38552   4.7558  60.8355 0001515  21.2445 156.9631  1.00273470 51226
METOP-B                 
1 38771U 12049A   26204.86322889  .00000072  00000+0  52935-4 0  9998
2 38771  98.6483 255.6267 0001454 212.1917 147.9172 14.21448137718479
INSAT-3D                
1 39216U 13038B   26204.85181845 -.00000336  00000+0  00000+0 0  9991
2 39216   2.0179  82.0776 0001165  44.6693 250.9956  1.00272459 47442
FENGYUN 3C              
1 39260U 13052A   26204.86461207  .00000058  00000+0  50829-4 0  9999
2 39260  98.5015 177.0606 0013444 278.9526  81.0126 14.15762233663751
METEOR-M 2              
1 40069U 14037A   26204.88906484  .00000063  00000+0  47956-4 0  9998
2 40069  98.5143 179.3323 0004679 297.2364  62.8337 14.21471365624531
HIMAWARI-8              
1 40267U 14060A   26204.85398513 -.00000271  00000+0  00000+0 0  9995
2 40267   0.0372 272.3317 0001405 244.7357 232.5899  1.00270487 43127
FENGYUN 2G              
1 40367U 14090A   26204.84886300 -.00000303  00000+0  00000+0 0  9990
2 40367   5.7293  72.3691 0003681 170.5844 103.7708  1.00278168 42367
METEOSAT-11 (MSG-4)     
1 40732U 15034A   26204.75677458  .00000064  00000+0  00000+0 0  9990
2 40732   3.2898  70.8709 0001949 355.8104 156.5352  1.00274533  7580
ELEKTRO-L 2             
1 41105U 15074A   26204.82334419 -.00000118  00000+0  00000+0 0  9995
2 41105   6.7838  70.0693 0000590 232.5473 280.8579  1.00272709 38873
SENTINEL-3A             
1 41335U 16011A   26204.82433404  .00000151  00000+0  80335-4 0  9996
2 41335  98.6230 271.6781 0001287  86.8623 273.2705 14.26736224543284
INSAT-3DR               
1 41752U 16054A   26204.84081174 -.00000072  00000+0  00000+0 0  9990
2 41752   0.0907  88.9075 0010242 180.2568  49.0763  1.00271827 36188
HIMAWARI-9              
1 41836U 16064A   26204.28378921  .00000000  00000+0  00000+0 0  9991
2 41836   0.0156  51.3156 0002529 127.9715   4.6463  1.00270213 35576
GOES 16                 
1 41866U 16071A   26204.63740390 -.00000086  00000+0  00000+0 0  9999
2 41866   0.4244  85.4160 0000760  70.5638 270.1499  1.00271941 35462
FENGYUN 4A              
1 41882U 16077A   26204.85069178 -.00000355  00000+0  00000+0 0  9994
2 41882   2.4132  79.8624 0008025 158.5716 132.9767  1.00264567 35296
CYGFM05                 
1 41884U 16078A   26204.84394743  .00023937  00000+0  30627-3 0  9997
2 41884  34.9578  17.5661 0005331 133.1527 226.9644 15.58196380534475
CYGFM04                 
1 41885U 16078B   26204.75882749  .00034000  00000+0  35343-3 0  9999
2 41885  34.9334 343.8944 0004510 181.9711 178.0998 15.63529208534721
CYGFM02                 
1 41886U 16078C   26204.74895777  .00040786  00000+0  36997-3 0  9998
2 41886  34.9412 337.3590 0005224 182.6208 177.4493 15.66900011534907
CYGFM01                 
1 41887U 16078D   26204.81604113  .00025008  00000+0  31115-3 0  9996
2 41887  34.9408  18.5011 0005130 125.7038 234.4165 15.58927621534428
CYGFM08                 
1 41888U 16078E   26204.77354176  .00030945  00000+0  34329-3 0  9999
2 41888  34.9441 357.3501 0006206 162.7896 197.3041 15.61872708534690
CYGFM07                 
1 41890U 16078G   26204.73026109  .00030685  00000+0  33913-3 0  9999
2 41890  34.9456 345.9476 0004992 180.3058 179.7665 15.61979452534712
CYGFM03                 
1 41891U 16078H   26204.76545689  .00031282  00000+0  34590-3 0  9998
2 41891  34.9412 347.6403 0004517 164.3433 195.7433 15.61966740534690
