OBJECT_NAME,OBJECT_ID,EPOCH,MEAN_MOTION,ECCENTRICITY,INCLINATION,RA_OF_ASC_NODE,ARG_OF_PERICENTER,MEAN_ANOMALY,EPHEMERIS_TYPE,CLASSIFICATION_TYPE,NORAD_CAT_ID,ELEMENT_SET_NO,REV_AT_EPOCH,BSTAR,MEAN_MOTION_DOT,MEAN_MOTION_DDOT
DMSP 5D-3 F16 (USA 172),2003-048A,2026-07-23T21:13:49.477152,14.14485028,.000788,98.9887,228.9543,49.7580,50.9208,0,U,28054,999,17467,.20865E-4,-.5E-7,0
METEOSAT-9 (MSG-2),2005-049B,2026-07-22T23:00:03.930048,1.00276551,.00024917,9.4401,53.8093,0.9883,276.6377,0,U,28912,999,735,0,.12E-5,0
DMSP 5D-3 F17 (USA 191),2006-050A,2026-07-23T20:51:03.968352,14.14996843,.000926,98.7392,210.6903,316.6337,43.4107,0,U,29522,999,1761,.40803E-4,.36E-6,0
FENGYUN 3A,2008-026A,2026-07-23T13:23:05.491680,14.19577818,.0009313,98.6886,144.7119,29.8116,330.3589,0,U,32958,999,94056,.43044E-4,.47E-6,0
EWS-G3 (GOES 14),2009-033A,2026-07-23T20:23:44.890368,1.00094314,.000226,1.7814,82.5872,39.8904,244.6383,0,U,35491,999,695,0,-.355E-5,0
DMSP 5D-3 F18 (USA 210),2009-057A,2026-07-23T20:13:06.733056,14.14915848,.0011694,98.9064,185.5368,141.9003,218.2999,0,U,35951,999,86477,.1422E-3,.23E-5,0
EWS-G2 (GOES 15),2010-008A,2026-07-23T20:07:46.419744,1.00272421,.0005659,1.3760,82.3633,52.7733,171.6158,0,U,36411,999,6000,0,.26E-6,0
COMS 1,2010-032A,2026-07-23T12:38:48.600096,0.99165960,.0011539,4.8958,74.9166,15.4491,329.5146,0,U,36744,999,5144,0,-.133E-5,0
FENGYUN 3B,2010-059A,2026-07-23T20:59:21.357600,14.14846689,.0023244,98.9605,251.0404,83.3055,25.3130,0,U,37214,999,81261,-.11438E-3,-.266E-5,0
SUOMI NPP,2011-061A,2026-07-23T20:27:13.536000,14.19523954,.0001203,98.7956,145.4793,179.0162,181.1016,0,U,37849,999,76364,.41008E-4,.42E-6,0
METEOSAT-10 (MSG-3),2012-035B,2026-07-23T19:49:44.042016,1.00273470,.0001515,4.7558,60.8355,21.2445,156.9631,0,U,38552,999,5122,0,-.6E-7,0
METOP-B,2012-049A,2026-07-23T20:43:02.976096,14.21448137,.0001454,98.6483,255.6267,212.1917,147.9172,0,U,38771,999,71847,.52935E-4,.72E-6,0
INSAT-3D,2013-038B,2026-07-23T20:26:37.114080,1.00272459,.0001165,2.0179,82.0776,44.6693,250.9956,0,U,39216,999,4744,0,-.336E-5,0
FENGYUN 3C,2013-052A,2026-07-23T20:45:02.482848,14.15762233,.0013444,98.5015,177.0606,278.9526,81.0126,0,U,39260,999,66375,.50829E-4,.58E-6,0
METEOR-M 2,2014-037A,2026-07-23T21:20:15.202176,14.21471365,.0004679,98.5143,179.3323,297.2364,62.8337,0,U,40069,999,62453,.47956E-4,.63E-6,0
HIMAWARI-8,2014-060A,2026-07-23T20:29:44.315232,1.00270487,.0001405,0.0372,272.3317,244.7357,232.5899,0,U,40267,999,4312,0,-.271E-5,0
FENGYUN 2G,2014-090A,2026-07-23T20:22:21.763200,1.00278168,.0003681,5.7293,72.3691,170.5844,103.7708,0,U,40367,999,4236,0,-.303E-5,0
METEOSAT-11 (MSG-4),2015-034A,2026-07-23T18:09:45.323712,1.00274533,.0001949,3.2898,70.8709,355.8104,156.5352,0,U,40732,999,758,0,.64E-6,0
ELEKTRO-L 2,2015-074A,2026-07-23T19:45:36.938016,1.00272709,.000059,6.7838,70.0693,232.5473,280.8579,0,U,41105,999,3887,0,-.118E-5,0
SENTINEL-3A,2016-011A,2026-07-23T19:47:02.461056,14.26736224,.0001287,98.6230,271.6781,86.8623,273.2705,0,U,41335,999,54328,.80335E-4,.151E-5,0
INSAT-3DR,2016-054A,2026-07-23T20:10:46.134336,1.00271827,.0010242,0.0907,88.9075,180.2568,49.0763,0,U,41752,999,3618,0,-.72E-6,0
HIMAWARI-9,2016-064A,2026-07-23T06:48:39.387744,1.00270213,.0002529,0.0156,51.3156,127.9715,4.6463,0,U,41836,999,3557,0,0,0
GOES 16,2016-071A,2026-07-23T15:17:51.696960,1.00271941,.000076,0.4244,85.4160,70.5638,270.1499,0,U,41866,999,3546,0,-.86E-6,0
FENGYUN 4A,2016-077A,2026-07-23T20:24:59.769792,1.00264567,.0008025,2.4132,79.8624,158.5716,132.9767,0,U,41882,999,3529,0,-.355E-5,0
CYGFM05,2016-078A,2026-07-23T20:15:17.057952,15.58196380,.0005331,34.9578,17.5661,133.1527,226.9644,0,U,41884,999,53447,.30627E-3,.23937E-3,0
CYGFM04,2016-078B,2026-07-23T18:12:42.695136,15.63529208,.000451,34.9334,343.8944,181.9711,178.0998,0,U,41885,999,53472,.35343E-3,.34E-3,0
CYGFM02,2016-078C,2026-07-23T17:58:29.951328,15.66900011,.0005224,34.9412,337.3590,182.6208,177.4493,0,U,41886,999,53490,.36997E-3,.40786E-3,0
CYGFM01,2016-078D,2026-07-23T19:35:05.953632,15.58927621,.000513,34.9408,18.5011,125.7038,234.4165,0,U,41887,999,53442,.31115E-3,.25008E-3,0
CYGFM08,2016-078E,2026-07-23T18:33:54.008064,15.61872708,.0006206,34.9441,357.3501,162.7896,197.3041,0,U,41888,999,53469,.34329E-3,.30945E-3,0
CYGFM07,2016-078G,2026-07-23T17:31:34.558176,15.61979452,.0004992,34.9456,345.9476,180.3058,179.7665,0,U,41890,999,53471,.33913E-3,.30685E-3,0
CYGFM03,2016-078H,2026-07-23T18:22:15.475296,15.61966740,.0004517,34.9412,347.6403,164.3433,195.7433,0,U,41891,999,53469,.3459E-3,.31282E-3,0
